start=new Date('2022-01-17T00:00:00.000Z').valueOf();
sats=[{"COUNTRY_CODE":"US","OBJECT_TYPE":"PAYLOAD","MEAN_ANOMALY":"292.4177","FILE":"3274974","SITE":"AFETR","EPHEMERIS_TYPE":"0","TLE_LINE1":"1 44915U 20001B   22016.94014816 -.00001175  00000-0 -59977-4 0  9997","INCLINATION":"53.0540","ARG_OF_PERICENTER":"67.7017","PERIAPSIS":"545.831","TIME_SYSTEM":"UTC","ELEMENT_SET_NO":"999","SEMIMAJOR_AXIS":"6925.306","PERIOD":"95.591","MEAN_MOTION":"15.06413855","BSTAR":"-0.00005997700000","ECCENTRICITY":"0.00019350","OBJECT_ID":"2020-001B","CLASSIFICATION_TYPE":"U","OBJECT_NAME":"STARLINK-1084","GP_ID":"193994372","CENTER_NAME":"EARTH","MEAN_MOTION_DOT":"-0.00001175","MEAN_MOTION_DDOT":"0.0000000000000","EPOCH":"2022-01-16T22:33:48.801024","NORAD_CAT_ID":"44915","REV_AT_EPOCH":"11184","RCS_SIZE":"LARGE","TLE_LINE2":"2 44915  53.0540 297.6129 0001935  67.7017 292.4177 15.06413855111849","APOAPSIS":"548.511","DECAY_DATE":null,"MEAN_ELEMENT_THEORY":"SGP4","RA_OF_ASC_NODE":"297.6129","REF_FRAME":"TEME","LAUNCH_DATE":"2020-01-07"},{"TLE_LINE1":"1 44917U 20001D   22016.94383520 -.00001579  00000-0 -87094-4 0  9999","INCLINATION":"53.0534","FILE":"3274978","SITE":"AFETR","EPHEMERIS_TYPE":"0","MEAN_ANOMALY":"304.9172","OBJECT_TYPE":"PAYLOAD","COUNTRY_CODE":"US","TIME_SYSTEM":"UTC","PERIAPSIS":"546.046","ELEMENT_SET_NO":"999","ARG_OF_PERICENTER":"55.1973","NORAD_CAT_ID":"44917","REV_AT_EPOCH":"11184","MEAN_MOTION_DOT":"-0.00001579","MEAN_MOTION_DDOT":"0.0000000000000","EPOCH":"2022-01-16T22:39:07.361280","GP_ID":"193994426","OBJECT_NAME":"STARLINK-1098","CENTER_NAME":"EARTH","ECCENTRICITY":"0.00016580","BSTAR":"-0.00008709400000","OBJECT_ID":"2020-001D","PERIOD":"95.592","SEMIMAJOR_AXIS":"6925.329","MEAN_MOTION":"15.06406435","CLASSIFICATION_TYPE":"U","REF_FRAME":"TEME","LAUNCH_DATE":"2020-01-07","RA_OF_ASC_NODE":"297.6020","MEAN_ELEMENT_THEORY":"SGP4","TLE_LINE2":"2 44917  53.0534 297.6020 0001658  55.1973 304.9172 15.06406435111848","APOAPSIS":"548.342","DECAY_DATE":null,"RCS_SIZE":"LARGE"},{"INCLINATION":"53.0533","TLE_LINE1":"1 44918U 20001E   22016.95489788  .00000340  00000-0  41697-4 0  9996","COUNTRY_CODE":"US","MEAN_ANOMALY":"291.1756","OBJECT_TYPE":"PAYLOAD","FILE":"3274978","SITE":"AFETR","EPHEMERIS_TYPE":"0","ELEMENT_SET_NO":"999","PERIAPSIS":"545.951","TIME_SYSTEM":"UTC","ARG_OF_PERICENTER":"68.9427","EPOCH":"2022-01-16T22:55:03.176832","MEAN_MOTION_DOT":"0.00000340","MEAN_MOTION_DDOT":"0.0000000000000","NORAD_CAT_ID":"44918","REV_AT_EPOCH":"11258","CLASSIFICATION_TYPE":"U","PERIOD":"95.592","SEMIMAJOR_AXIS":"6925.342","MEAN_MOTION":"15.06402163","OBJECT_ID":"2020-001E","BSTAR":"0.00004169700000","ECCENTRICITY":"0.00018130","CENTER_NAME":"EARTH","OBJECT_NAME":"STARLINK-1099","GP_ID":"193994427","MEAN_ELEMENT_THEORY":"SGP4","RA_OF_ASC_NODE":"297.5616","LAUNCH_DATE":"2020-01-07","REF_FRAME":"TEME","RCS_SIZE":"LARGE","DECAY_DATE":null,"TLE_LINE2":"2 44918  53.0533 297.5616 0001813  68.9427 291.1756 15.06402163112588","APOAPSIS":"548.462"},{"EPOCH":"2022-01-16T23:16:16.785408","MEAN_MOTION_DDOT":"0.0000000000000","MEAN_MOTION_DOT":"-0.00000400","REV_AT_EPOCH":"11184","NORAD_CAT_ID":"44920","CLASSIFICATION_TYPE":"U","BSTAR":"-0.00000797440000","OBJECT_ID":"2020-001G","ECCENTRICITY":"0.00014430","MEAN_MOTION":"15.06405048","PERIOD":"95.592","SEMIMAJOR_AXIS":"6925.333","CENTER_NAME":"EARTH","GP_ID":"193994435","OBJECT_NAME":"STARLINK-1102","RA_OF_ASC_NODE":"297.4834","MEAN_ELEMENT_THEORY":"SGP4","LAUNCH_DATE":"2020-01-07","REF_FRAME":"TEME","RCS_SIZE":"LARGE","DECAY_DATE":null,"TLE_LINE2":"2 44920  53.0550 297.4834 0001443  60.7906 299.3227 15.06405048111848","APOAPSIS":"548.197","INCLINATION":"53.0550","TLE_LINE1":"1 44920U 20001G   22016.96963872 -.00000400  00000-0 -79744-5 0  9995","MEAN_ANOMALY":"299.3227","OBJECT_TYPE":"PAYLOAD","COUNTRY_CODE":"US","SITE":"AFETR","FILE":"3274979","EPHEMERIS_TYPE":"0","ELEMENT_SET_NO":"999","TIME_SYSTEM":"UTC","PERIAPSIS":"546.199","ARG_OF_PERICENTER":"60.7906"},{"REF_FRAME":"TEME","LAUNCH_DATE":"2020-01-07","MEAN_ELEMENT_THEORY":"SGP4","RA_OF_ASC_NODE":"297.6824","TLE_LINE2":"2 44921  53.0512 297.6824 0002434  62.1756 297.9479 15.06411686111813","APOAPSIS":"548.863","DECAY_DATE":null,"RCS_SIZE":"LARGE","REV_AT_EPOCH":"11181","NORAD_CAT_ID":"44921","MEAN_MOTION_DDOT":"0.0000000000000","MEAN_MOTION_DOT":"0.00002223","EPOCH":"2022-01-16T22:12:35.308224","OBJECT_NAME":"STARLINK-1103","GP_ID":"193994535","CENTER_NAME":"EARTH","PERIOD":"95.591","MEAN_MOTION":"15.06411686","SEMIMAJOR_AXIS":"6925.313","BSTAR":"0.00016804000000","ECCENTRICITY":"0.00024340","OBJECT_ID":"2020-001H","CLASSIFICATION_TYPE":"U","TIME_SYSTEM":"UTC","PERIAPSIS":"545.492","ELEMENT_SET_NO":"999","ARG_OF_PERICENTER":"62.1756","TLE_LINE1":"1 44921U 20001H   22016.92540866  .00002223  00000-0  16804-3 0  9995","INCLINATION":"53.0512","SITE":"AFETR","FILE":"3274979","EPHEMERIS_TYPE":"0","COUNTRY_CODE":"US","MEAN_ANOMALY":"297.9479","OBJECT_TYPE":"PAYLOAD"},{"REF_FRAME":"TEME","LAUNCH_DATE":"2020-01-07","RA_OF_ASC_NODE":"297.5288","MEAN_ELEMENT_THEORY":"SGP4","TLE_LINE2":"2 44922  53.0534 297.5288 0001672  57.6815 302.4336 15.06400655111840","APOAPSIS":"548.369","DECAY_DATE":null,"RCS_SIZE":"LARGE","REV_AT_EPOCH":"11184","NORAD_CAT_ID":"44922","MEAN_MOTION_DOT":"-0.00003977","MEAN_MOTION_DDOT":"0.0000000000000","EPOCH":"2022-01-16T23:00:21.313728","GP_ID":"193994532","OBJECT_NAME":"STARLINK-1104","CENTER_NAME":"EARTH","OBJECT_ID":"2020-001J","BSTAR":"-0.00024823000000","ECCENTRICITY":"0.00016720","PERIOD":"95.592","SEMIMAJOR_AXIS":"6925.347","MEAN_MOTION":"15.06400655","CLASSIFICATION_TYPE":"U","TIME_SYSTEM":"UTC","PERIAPSIS":"546.054","ELEMENT_SET_NO":"999","ARG_OF_PERICENTER":"57.6815","TLE_LINE1":"1 44922U 20001J   22016.95858002 -.00003977  00000-0 -24823-3 0  9992","INCLINATION":"53.0534","FILE":"3274979","EPHEMERIS_TYPE":"0","SITE":"AFETR","MEAN_ANOMALY":"302.4336","OBJECT_TYPE":"PAYLOAD","COUNTRY_CODE":"US"},{"TLE_LINE1":"1 44923U 20001K   22016.78533890  .00003462  00000-0  25107-3 0  9992","INCLINATION":"53.0565","EPHEMERIS_TYPE":"0","FILE":"3274979","SITE":"AFETR","OBJECT_TYPE":"PAYLOAD","MEAN_ANOMALY":"285.5552","COUNTRY_CODE":"US","PERIAPSIS":"546.031","TIME_SYSTEM":"UTC","ELEMENT_SET_NO":"999","ARG_OF_PERICENTER":"74.5617","REV_AT_EPOCH":"11181","NORAD_CAT_ID":"44923","MEAN_MOTION_DDOT":"0.0000000000000","MEAN_MOTION_DOT":"0.00003462","EPOCH":"2022-01-16T18:50:53.280960","GP_ID":"193994533","OBJECT_NAME":"STARLINK-1106","CENTER_NAME":"EARTH","BSTAR":"0.00025107000000","ECCENTRICITY":"0.00016310","OBJECT_ID":"2020-001K","PERIOD":"95.591","MEAN_MOTION":"15.06417339","SEMIMAJOR_AXIS":"6925.295","CLASSIFICATION_TYPE":"U","REF_FRAME":"TEME","LAUNCH_DATE":"2020-01-07","RA_OF_ASC_NODE":"298.3071","MEAN_ELEMENT_THEORY":"SGP4","TLE_LINE2":"2 44923  53.0565 298.3071 0001631  74.5617 285.5552 15.06417339111812","APOAPSIS":"548.290","DECAY_DATE":null,"RCS_SIZE":"LARGE"},{"RA_OF_ASC_NODE":"298.3628","MEAN_ELEMENT_THEORY":"SGP4","LAUNCH_DATE":"2020-01-07","REF_FRAME":"TEME","RCS_SIZE":"LARGE","DECAY_DATE":null,"APOAPSIS":"548.756","TLE_LINE2":"2 44924  53.0547 298.3628 0002301  70.3260 289.7977 15.06416655111811","EPOCH":"2022-01-16T18:34:57.932832","MEAN_MOTION_DOT":"0.00002636","MEAN_MOTION_DDOT":"0.0000000000000","REV_AT_EPOCH":"11181","NORAD_CAT_ID":"44924","CLASSIFICATION_TYPE":"U","BSTAR":"0.00019572000000","OBJECT_ID":"2020-001L","ECCENTRICITY":"0.00023010","PERIOD":"95.591","SEMIMAJOR_AXIS":"6925.298","MEAN_MOTION":"15.06416655","CENTER_NAME":"EARTH","GP_ID":"193994541","OBJECT_NAME":"STARLINK-1111","ELEMENT_SET_NO":"999","PERIAPSIS":"545.569","TIME_SYSTEM":"UTC","ARG_OF_PERICENTER":"70.3260","INCLINATION":"53.0547","TLE_LINE1":"1 44924U 20001L   22016.77428163  .00002636  00000-0  19572-3 0  9999","OBJECT_TYPE":"PAYLOAD","MEAN_ANOMALY":"289.7977","COUNTRY_CODE":"US","EPHEMERIS_TYPE":"0","FILE":"3274980","SITE":"AFETR"},{"ARG_OF_PERICENTER":"63.4657","PERIAPSIS":"545.788","TIME_SYSTEM":"UTC","ELEMENT_SET_NO":"999","SITE":"AFETR","FILE":"3274980","EPHEMERIS_TYPE":"0","COUNTRY_CODE":"US","MEAN_ANOMALY":"296.6538","OBJECT_TYPE":"PAYLOAD","TLE_LINE1":"1 44925U 20001M   22016.92172147 -.00000360  00000-0 -52739-5 0  9993","INCLINATION":"53.0540","TLE_LINE2":"2 44925  53.0540 297.6938 0002014  63.4657 296.6538 15.06409914111837","APOAPSIS":"548.578","DECAY_DATE":null,"RCS_SIZE":"LARGE","REF_FRAME":"TEME","LAUNCH_DATE":"2020-01-07","MEAN_ELEMENT_THEORY":"SGP4","RA_OF_ASC_NODE":"297.6938","OBJECT_NAME":"STARLINK-1112","GP_ID":"193994546","CENTER_NAME":"EARTH","PERIOD":"95.592","SEMIMAJOR_AXIS":"6925.318","MEAN_MOTION":"15.06409914","ECCENTRICITY":"0.00020140","BSTAR":"-0.00000527390000","OBJECT_ID":"2020-001M","CLASSIFICATION_TYPE":"U","REV_AT_EPOCH":"11183","NORAD_CAT_ID":"44925","MEAN_MOTION_DOT":"-0.00000360","MEAN_MOTION_DDOT":"0.0000000000000","EPOCH":"2022-01-16T22:07:16.735008"},{"RCS_SIZE":"LARGE","DECAY_DATE":null,"APOAPSIS":"550.902","TLE_LINE2":"2 44926  53.0016 297.7252 0001793  81.5606 278.5585 15.05602132112540","RA_OF_ASC_NODE":"297.7252","MEAN_ELEMENT_THEORY":"SGP4","LAUNCH_DATE":"2020-01-07","REF_FRAME":"TEME","CLASSIFICATION_TYPE":"U","BSTAR":"0.00018836000000","ECCENTRICITY":"0.00017930","OBJECT_ID":"2020-001N","SEMIMAJOR_AXIS":"6927.795","PERIOD":"95.643","MEAN_MOTION":"15.05602132","CENTER_NAME":"EARTH","GP_ID":"193994450","OBJECT_NAME":"STARLINK-1113","EPOCH":"2022-01-16T21:58:22.209312","MEAN_MOTION_DDOT":"0.0000000000000","MEAN_MOTION_DOT":"0.00002468","NORAD_CAT_ID":"44926","REV_AT_EPOCH":"11254","ARG_OF_PERICENTER":"81.5606","ELEMENT_SET_NO":"999","TIME_SYSTEM":"UTC","PERIAPSIS":"548.418","MEAN_ANOMALY":"278.5585","OBJECT_TYPE":"PAYLOAD","COUNTRY_CODE":"US","SITE":"AFETR","FILE":"3274980","EPHEMERIS_TYPE":"0","INCLINATION":"53.0016","TLE_LINE1":"1 44926U 20001N   22016.91553483  .00002468  00000-0  18836-3 0  9996"}];
